{"type": "FeatureCollection", "features": [ {"type": "Feature", "properties": {"norad_id": 34327, "name": "COSMOS 2251 DEB", "group": "cosmos-2251-debris", "lat": 7.96362205064732, "lon": -174.94527060545437, "alt_km": 580.2125662105709, "timestamp": "2025-12-07T07:31:36.692001+00:00", "meta": {"OBJECT_NAME": "COSMOS 2251 DEB", "OBJECT_ID": "1993-036NZ", "EPOCH": "2025-12-06T15:38:43.894752", "MEAN_MOTION": 14.88982196, "ECCENTRICITY": 0.00324216, "INCLINATION": 73.9932, "RA_OF_ASC_NODE": 184.078, "ARG_OF_PERICENTER": 1.6856, "MEAN_ANOMALY": 61.0726, "EPHEMERIS_TYPE": 0, "CLASSIFICATION_TYPE": "U", "NORAD_CAT_ID": 34327, "ELEMENT_SET_NO": 999, "REV_AT_EPOCH": 89417, "BSTAR": 0.0020557625, "MEAN_MOTION_DOT": 0.00019542, "MEAN_MOTION_DDOT": 0}, "tle": {"line1": "1 34327U 93036NZ  25340.65189693  .00019542  00000+0  20558-2 0  9993", "line2": "2 34327  73.9932 184.0780 0032421   1.6856  61.0726 14.88982196894177"}}, "geometry": {"type": "Point", "coordinates": [-174.94527060545437, 7.96362205064732]}}, {"type": "Feature", "properties": {"norad_id": 34340, "name": "COSMOS 2251 DEB", "group": "cosmos-2251-debris", "lat": 34.30596063619977, "lon": 125.81955100656802, "alt_km": 913.7065187436865, "timestamp": "2025-12-07T07:31:36.692011+00:00", "meta": {"OBJECT_NAME": "COSMOS 2251 DEB", "OBJECT_ID": "1993-036PN", "EPOCH": "2025-12-06T08:56:03.079968", "MEAN_MOTION": 13.79538665, "ECCENTRICITY": 0.028198, "INCLINATION": 74.0788, "RA_OF_ASC_NODE": 318.6214, "ARG_OF_PERICENTER": 67.9834, "MEAN_ANOMALY": 79.5676, "EPHEMERIS_TYPE": 0, "CLASSIFICATION_TYPE": "U", "NORAD_CAT_ID": 34340, "ELEMENT_SET_NO": 999, "REV_AT_EPOCH": 84180, "BSTAR": 0.0016937884, "MEAN_MOTION_DOT": 2.331e-05, "MEAN_MOTION_DDOT": 0}, "tle": {"line1": "1 34340U 93036PN  25340.37225787  .00002331  00000+0  16938-2 0  9997", "line2": "2 34340  74.0788 318.6214 0281980  67.9834  79.5676 13.79538665841804"}}, "geometry": {"type": "Point", "coordinates": [125.81955100656802, 34.30596063619977]}}, {"type": "Feature", "properties": {"norad_id": 34343, "name": "COSMOS 2251 DEB", "group": "cosmos-2251-debris", "lat": -71.67070229306809, "lon": -20.046884411505992, "alt_km": 677.2605223670016, "timestamp": "2025-12-07T07:31:36.692021+00:00", "meta": {"OBJECT_NAME": "COSMOS 2251 DEB", "OBJECT_ID": "1993-036PR", "EPOCH": "2025-12-06T19:27:23.018976", "MEAN_MOTION": 14.6927987, "ECCENTRICITY": 0.00228305, "INCLINATION": 74.0205, "RA_OF_ASC_NODE": 101.0494, "ARG_OF_PERICENTER": 17.9468, "MEAN_ANOMALY": 104.0412, "EPHEMERIS_TYPE": 0, "CLASSIFICATION_TYPE": "U", "NORAD_CAT_ID": 34343, "ELEMENT_SET_NO": 999, "REV_AT_EPOCH": 88643, "BSTAR": 0.0027807324, "MEAN_MOTION_DOT": 0.00016481, "MEAN_MOTION_DDOT": 0}, "tle": {"line1": "1 34343U 93036PR  25340.81068309  .00016481  00000+0  27807-2 0  9992", "line2": "2 34343  74.0205 101.0494 0022830  17.9468 104.0412 14.69279870886430"}}, "geometry": {"type": "Point", "coordinates": [-20.046884411505992, -71.67070229306809]}}, {"type": "Feature", "properties": {"norad_id": 34344, "name": "COSMOS 2251 DEB", "group": "cosmos-2251-debris", "lat": -41.403703576876495, "lon": 105.35846983099778, "alt_km": 733.9554477964502, "timestamp": "2025-12-07T07:31:36.692032+00:00", "meta": {"OBJECT_NAME": "COSMOS 2251 DEB", "OBJECT_ID": "1993-036PS", "EPOCH": "2025-12-05T11:56:44.170944", "MEAN_MOTION": 14.16331086, "ECCENTRICITY": 0.01553422, "INCLINATION": 73.9776, "RA_OF_ASC_NODE": 123.2752, "ARG_OF_PERICENTER": 308.8907, "MEAN_ANOMALY": 112.1202, "EPHEMERIS_TYPE": 0, "CLASSIFICATION_TYPE": "U", "NORAD_CAT_ID": 34344, "ELEMENT_SET_NO": 999, "REV_AT_EPOCH": 85994, "BSTAR": 0.0025753986, "MEAN_MOTION_DOT": 5.727e-05, "MEAN_MOTION_DDOT": 0}, "tle": {"line1": "1 34344U 93036PS  25339.49773346  .00005727  00000+0  25754-2 0  9999", "line2": "2 34344  73.9776 123.2752 0155342 308.8907 112.1202 14.16331086859943"}}, "geometry": {"type": "Point", "coordinates": [105.35846983099778, -41.403703576876495]}}, {"type": "Feature", "properties": {"norad_id": 34346, "name": "COSMOS 2251 DEB", "group": "cosmos-2251-debris", "lat": 30.782772454121645, "lon": -28.493037854993414, "alt_km": 940.5939116517611, "timestamp": "2025-12-07T07:31:36.692041+00:00", "meta": {"OBJECT_NAME": "COSMOS 2251 DEB", "OBJECT_ID": "1993-036PU", "EPOCH": "2025-12-06T09:49:47.404416", "MEAN_MOTION": 13.99665258, "ECCENTRICITY": 0.02064991, "INCLINATION": 73.9952, "RA_OF_ASC_NODE": 323.2302, "ARG_OF_PERICENTER": 143.6647, "MEAN_ANOMALY": 17.3103, "EPHEMERIS_TYPE": 0, "CLASSIFICATION_TYPE": "U", "NORAD_CAT_ID": 34346, "ELEMENT_SET_NO": 999, "REV_AT_EPOCH": 85321, "BSTAR": 0.0014890873, "MEAN_MOTION_DOT": 2.594e-05, "MEAN_MOTION_DDOT": 0}, "tle": {"line1": "1 34346U 93036PU  25340.40957644  .00002594  00000+0  14891-2 0  9998", "line2": "2 34346  73.9952 323.2302 0206499 143.6647  17.3103 13.99665258853211"}}, "geometry": {"type": "Point", "coordinates": [-28.493037854993414, 30.782772454121645]}}, {"type": "Feature", "properties": {"norad_id": 34383, "name": "COSMOS 2251 DEB", "group": "cosmos-2251-debris", "lat": -73.59504667640327, "lon": -154.40345828935858, "alt_km": 549.6857319856499, "timestamp": "2025-12-07T07:31:36.692051+00:00", "meta": {"OBJECT_NAME": "COSMOS 2251 DEB", "OBJECT_ID": "1993-036PY", "EPOCH": "2025-12-06T22:41:10.127040", "MEAN_MOTION": 15.08178759, "ECCENTRICITY": 0.00027701, "INCLINATION": 74.0221, "RA_OF_ASC_NODE": 309.6448, "ARG_OF_PERICENTER": 33.7559, "MEAN_ANOMALY": 33.3528, "EPHEMERIS_TYPE": 0, "CLASSIFICATION_TYPE": "U", "NORAD_CAT_ID": 34383, "ELEMENT_SET_NO": 999, "REV_AT_EPOCH": 89026, "BSTAR": 0.004984484, "MEAN_MOTION_DOT": 0.00077902, "MEAN_MOTION_DDOT": 0}, "tle": {"line1": "1 34383U 93036PY  25340.94525610  .00077902  00000+0  49845-2 0  9994", "line2": "2 34383  74.0221 309.6448 0002770  33.7559  33.3528 15.08178759890261"}}, "geometry": {"type": "Point", "coordinates": [-154.40345828935858, -73.59504667640327]}}, {"type": "Feature", "properties": {"norad_id": 34387, "name": "COSMOS 2251 DEB", "group": "cosmos-2251-debris", "lat": 26.379949987646594, "lon": -129.86032013789227, "alt_km": 734.1875501990899, "timestamp": "2025-12-07T07:31:36.692120+00:00", "meta": {"OBJECT_NAME": "COSMOS 2251 DEB", "OBJECT_ID": "1993-036QC", "EPOCH": "2025-12-06T10:36:49.434912", "MEAN_MOTION": 14.43800517, "ECCENTRICITY": 0.00386126, "INCLINATION": 74.0398, "RA_OF_ASC_NODE": 223.5988, "ARG_OF_PERICENTER": 321.5963, "MEAN_ANOMALY": 218.291, "EPHEMERIS_TYPE": 0, "CLASSIFICATION_TYPE": "U", "NORAD_CAT_ID": 34387, "ELEMENT_SET_NO": 999, "REV_AT_EPOCH": 88090, "BSTAR": 0.00057015645, "MEAN_MOTION_DOT": 1.932e-05, "MEAN_MOTION_DDOT": 0}, "tle": {"line1": "1 34387U 93036QC  25340.44223883  .00001932  00000+0  57016-3 0  9990", "line2": "2 34387  74.0398 223.5988 0038612 321.5963 218.2910 14.43800517880905"}}, "geometry": {"type": "Point", "coordinates": [-129.86032013789227, 26.379949987646594]}}, {"type": "Feature", "properties": {"norad_id": 34388, "name": "COSMOS 2251 DEB", "group": "cosmos-2251-debris", "lat": -72.08026820539895, "lon": 115.53383171432475, "alt_km": 725.2834474141464, "timestamp": "2025-12-07T07:31:36.692134+00:00", "meta": {"OBJECT_NAME": "COSMOS 2251 DEB", "OBJECT_ID": "1993-036QD", "EPOCH": "2025-12-06T19:01:31.053792", "MEAN_MOTION": 14.49319439, "ECCENTRICITY": 0.00142402, "INCLINATION": 74.0395, "RA_OF_ASC_NODE": 234.2577, "ARG_OF_PERICENTER": 282.7311, "MEAN_ANOMALY": 142.3576, "EPHEMERIS_TYPE": 0, "CLASSIFICATION_TYPE": "U", "NORAD_CAT_ID": 34388, "ELEMENT_SET_NO": 999, "REV_AT_EPOCH": 88069, "BSTAR": 0.0013081305, "MEAN_MOTION_DOT": 4.977e-05, "MEAN_MOTION_DDOT": 0}, "tle": {"line1": "1 34388U 93036QD  25340.79272053  .00004977  00000+0  13081-2 0  9997", "line2": "2 34388  74.0395 234.2577 0014240 282.7311 142.3576 14.49319439880697"}}, "geometry": {"type": "Point", "coordinates": [115.53383171432475, -72.08026820539895]}}, {"type": "Feature", "properties": {"norad_id": 34389, "name": "COSMOS 2251 DEB", "group": "cosmos-2251-debris", "lat": 69.5885362398506, "lon": -49.76443538248037, "alt_km": 737.4782280758645, "timestamp": "2025-12-07T07:31:36.692144+00:00", "meta": {"OBJECT_NAME": "COSMOS 2251 DEB", "OBJECT_ID": "1993-036QE", "EPOCH": "2025-12-06T21:28:47.095392", "MEAN_MOTION": 14.4150918, "ECCENTRICITY": 0.00286156, "INCLINATION": 74.0196, "RA_OF_ASC_NODE": 260.6514, "ARG_OF_PERICENTER": 13.8401, "MEAN_ANOMALY": 51.4578, "EPHEMERIS_TYPE": 0, "CLASSIFICATION_TYPE": "U", "NORAD_CAT_ID": 34389, "ELEMENT_SET_NO": 999, "REV_AT_EPOCH": 87928, "BSTAR": 0.00075847902, "MEAN_MOTION_DOT": 2.45e-05, "MEAN_MOTION_DDOT": 0}, "tle": {"line1": "1 34389U 93036QE  25340.89498953  .00002450  00000+0  75848-3 0  9992", "line2": "2 34389  74.0196 260.6514 0028615  13.8401  51.4578 14.41509180879286"}}, "geometry": {"type": "Point", "coordinates": [-49.76443538248037, 69.5885362398506]}}, {"type": "Feature", "properties": {"norad_id": 34396, "name": "COSMOS 2251 DEB", "group": "cosmos-2251-debris", "lat": 71.91012611032713, "lon": -164.11619358855683, "alt_km": 641.2126771850544, "timestamp": "2025-12-07T07:31:36.692154+00:00", "meta": {"OBJECT_NAME": "COSMOS 2251 DEB", "OBJECT_ID": "1993-036QM", "EPOCH": "2025-12-06T16:33:14.096736", "MEAN_MOTION": 14.74155148, "ECCENTRICITY": 0.00067682, "INCLINATION": 74.0285, "RA_OF_ASC_NODE": 135.8471, "ARG_OF_PERICENTER": 182.0025, "MEAN_ANOMALY": 189.9781, "EPHEMERIS_TYPE": 0, "CLASSIFICATION_TYPE": "U", "NORAD_CAT_ID": 34396, "ELEMENT_SET_NO": 999, "REV_AT_EPOCH": 88257, "BSTAR": 0.0038427461, "MEAN_MOTION_DOT": 0.00025426, "MEAN_MOTION_DDOT": 0}, "tle": {"line1": "1 34396U 93036QM  25340.68974649  .00025426  00000+0  38427-2 0  9997", "line2": "2 34396  74.0285 135.8471 0006768 182.0025 189.9781 14.74155148882570"}}, "geometry": {"type": "Point", "coordinates": [-164.11619358855683, 71.91012611032713]}}]}